STARLINK-4717           
1 53705U 22107F   23033.06335345 -.00000735  00000+0 -28107-4 0  9990
2 53705  53.2171 284.3984 0001370  79.0942 281.0204 15.08839197 23262
STARLINK-4716           
1 53706U 22107G   23033.11949319  .00000200  00000+0  30651-4 0  9991
2 53706  53.2170 284.0396 0001347  79.5307 280.5837 15.08839093 23272
STARLINK-4667           
1 53707U 22107H   23032.77310101 -.00003273  00000+0 -18761-3 0  9996
2 53707  53.2159 270.4760 0001075  96.3485 263.7629 15.08850070 23434
STARLINK-4694           
1 53708U 22107J   23032.74002196 -.00000839  00000+0 -34634-4 0  9999
2 53708  53.2146 270.9721 0001203  88.0992 272.0138 15.08838996 23427
STARLINK-4685           
1 53709U 22107K   23032.75651589 -.00000775  00000+0 -30624-4 0  9991
2 53709  53.2170 290.3438 0001231 104.3579 255.7550 15.08832403 23153
STARLINK-4627           
1 53711U 22107M   23033.09140048  .00000501  00000+0  49548-4 0  9995
2 53711  53.2189 288.8697 0001182 101.1035 259.0090 15.08839764 23201
STARLINK-4683           
1 53712U 22107N   23033.08403817  .00003580  00000+0  24304-3 0  9993
2 53712  53.2183 288.8416 0001501  79.6595 280.4566 15.08823617 23206
STARLINK-4698           
1 53713U 22107P   23033.00715696 -.00001189  00000+0 -56639-4 0  9999
2 53713  53.2176 294.0377 0001234  90.7996 269.3138 15.08837823 23122
STARLINK-4688           
1 53714U 22107Q   23033.08581129  .00076740  00000+0  47647-2 0  9990
2 53714  53.2151 268.8742 0001231 113.6863 246.4259 15.09016725 23486
STARLINK-4686           
1 53715U 22107R   23033.15068850 -.00001866  00000+0 -99216-4 0  9990
2 53715  53.2180 293.5072 0001389  88.0255 272.0896 15.08832124 23136
STARLINK-4699           
1 53716U 22107S   23033.14700642  .00000223  00000+0  32093-4 0  9996
2 53716  53.2172 293.4880 0001317  97.4382 262.6760 15.08838545 23138
STARLINK-4695           
1 53718U 22107U   23033.14331659  .00000491  00000+0  48942-4 0  9993
2 53718  53.2191 293.4618 0001262  81.4975 278.6161 15.08841839 23132
STARLINK-4644           
1 53719U 22107V   23032.94428565  .00003837  00000+0  24360-3 0  9998
2 53719  53.2126 265.0941 0001812  93.8362 266.2838 15.11133800 23504
STARLINK-4642           
1 53720U 22107W   23033.08814141 -.00001581  00000+0 -81306-4 0  9995
2 53720  53.2183 293.8284 0001409  89.2688 270.8466 15.08833407 23122
STARLINK-4707           
1 53721U 22107X   23033.09550157  .00001484  00000+0  11127-3 0  9994
2 53721  53.2178 293.8776 0001070  86.4743 273.6372 15.08840929 23122
STARLINK-4700           
1 53722U 22107Y   23033.08908904 -.00000544  00000+0 -16125-4 0  9993
2 53722  53.2171 293.8380 0001093  83.4474 276.6642 15.08839134 23129
STARLINK-4705           
1 53723U 22107Z   23033.10288059 -.00002058  00000+0 -11127-3 0  9997
2 53723  53.2198 293.9139 0001257 103.7424 256.3708 15.08835424 23121
