[{"OBJECT_NAME":"STARLINK-4717","OBJECT_ID":"2022-107F","EPOCH":"2023-02-02T01:31:13.738080","MEAN_MOTION":15.08839197,"ECCENTRICITY":0.000137,"INCLINATION":53.2171,"RA_OF_ASC_NODE":284.3984,"ARG_OF_PERICENTER":79.0942,"MEAN_ANOMALY":281.0204,"EPHEMERIS_TYPE":0,"CLASSIFICATION_TYPE":"U","NORAD_CAT_ID":53705,"ELEMENT_SET_NO":999,"REV_AT_EPOCH":2326,"BSTAR":-2.8107e-5,"MEAN_MOTION_DOT":-7.35e-6,"MEAN_MOTION_DDOT":0},{"OBJECT_NAME":"STARLINK-4716","OBJECT_ID":"2022-107G","EPOCH":"2023-02-02T02:52:04.211616","MEAN_MOTION":15.08839093,"ECCENTRICITY":0.0001347,"INCLINATION":53.217,"RA_OF_ASC_NODE":284.0396,"ARG_OF_PERICENTER":79.5307,"MEAN_ANOMALY":280.5837,"EPHEMERIS_TYPE":0,"CLASSIFICATION_TYPE":"U","NORAD_CAT_ID":53706,"ELEMENT_SET_NO":999,"REV_AT_EPOCH":2327,"BSTAR":3.0651e-5,"MEAN_MOTION_DOT":2.0e-6,"MEAN_MOTION_DDOT":0},{"OBJECT_NAME":"STARLINK-4667","OBJECT_ID":"2022-107H","EPOCH":"2023-02-01T18:33:15.927264","MEAN_MOTION":15.0885007,"ECCENTRICITY":0.0001075,"INCLINATION":53.2159,"RA_OF_ASC_NODE":270.476,"ARG_OF_PERICENTER":96.3485,"MEAN_ANOMALY":263.7629,"EPHEMERIS_TYPE":0,"CLASSIFICATION_TYPE":"U","NORAD_CAT_ID":53707,"ELEMENT_SET_NO":999,"REV_AT_EPOCH":2343,"BSTAR":-0.00018761,"MEAN_MOTION_DOT":-3.273e-5,"MEAN_MOTION_DDOT":0},{"OBJECT_NAME":"STARLINK-4694","OBJECT_ID":"2022-107J","EPOCH":"2023-02-01T17:45:37.897344","MEAN_MOTION":15.08838996,"ECCENTRICITY":0.0001203,"INCLINATION":53.2146,"RA_OF_ASC_NODE":270.9721,"ARG_OF_PERICENTER":88.0992,"MEAN_ANOMALY":272.0138,"EPHEMERIS_TYPE":0,"CLASSIFICATION_TYPE":"U","NORAD_CAT_ID":53708,"ELEMENT_SET_NO":999,"REV_AT_EPOCH":2342,"BSTAR":-3.4634e-5,"MEAN_MOTION_DOT":-8.39e-6,"MEAN_MOTION_DDOT":0},{"OBJECT_NAME":"STARLINK-4685","OBJECT_ID":"2022-107K","EPOCH":"2023-02-01T18:09:22.972896","MEAN_MOTION":15.08832403,"ECCENTRICITY":0.0001231,"INCLINATION":53.217,"RA_OF_ASC_NODE":290.3438,"ARG_OF_PERICENTER":104.3579,"MEAN_ANOMALY":255.755,"EPHEMERIS_TYPE":0,"CLASSIFICATION_TYPE":"U","NORAD_CAT_ID":53709,"ELEMENT_SET_NO":999,"REV_AT_EPOCH":2315,"BSTAR":-3.0624e-5,"MEAN_MOTION_DOT":-7.75e-6,"MEAN_MOTION_DDOT":0},{"OBJECT_NAME":"STARLINK-4627","OBJECT_ID":"2022-107M","EPOCH":"2023-02-02T02:11:37.001472","MEAN_MOTION":15.08839764,"ECCENTRICITY":0.0001182,"INCLINATION":53.2189,"RA_OF_ASC_NODE":288.8697,"ARG_OF_PERICENTER":101.1035,"MEAN_ANOMALY":259.009,"EPHEMERIS_TYPE":0,"CLASSIFICATION_TYPE":"U","NORAD_CAT_ID":53711,"ELEMENT_SET_NO":999,"REV_AT_EPOCH":2320,"BSTAR":4.9548e-5,"MEAN_MOTION_DOT":5.01e-6,"MEAN_MOTION_DDOT":0},{"OBJECT_NAME":"STARLINK-4683","OBJECT_ID":"2022-107N","EPOCH":"2023-02-02T02:01:00.897888","MEAN_MOTION":15.08823617,"ECCENTRICITY":0.0001501,"INCLINATION":53.2183,"RA_OF_ASC_NODE":288.8416,"ARG_OF_PERICENTER":79.6595,"MEAN_ANOMALY":280.4566,"EPHEMERIS_TYPE":0,"CLASSIFICATION_TYPE":"U","NORAD_CAT_ID":53712,"ELEMENT_SET_NO":999,"REV_AT_EPOCH":2320,"BSTAR":0.00024304,"MEAN_MOTION_DOT":3.58e-5,"MEAN_MOTION_DDOT":0},{"OBJECT_NAME":"STARLINK-4698","OBJECT_ID":"2022-107P","EPOCH":"2023-02-02T00:10:18.361344","MEAN_MOTION":15.08837823,"ECCENTRICITY":0.0001234,"INCLINATION":53.2176,"RA_OF_ASC_NODE":294.0377,"ARG_OF_PERICENTER":90.7996,"MEAN_ANOMALY":269.3138,"EPHEMERIS_TYPE":0,"CLASSIFICATION_TYPE":"U","NORAD_CAT_ID":53713,"ELEMENT_SET_NO":999,"REV_AT_EPOCH":2312,"BSTAR":-5.6639e-5,"MEAN_MOTION_DOT":-1.189e-5,"MEAN_MOTION_DDOT":0},{"OBJECT_NAME":"STARLINK-4688","OBJECT_ID":"2022-107Q","EPOCH":"2023-02-02T02:03:34.095456","MEAN_MOTION":15.09016725,"ECCENTRICITY":0.0001231,"INCLINATION":53.2151,"RA_OF_ASC_NODE":268.8742,"ARG_OF_PERICENTER":113.6863,"MEAN_ANOMALY":246.4259,"EPHEMERIS_TYPE":0,"CLASSIFICATION_TYPE":"U","NORAD_CAT_ID":53714,"ELEMENT_SET_NO":999,"REV_AT_EPOCH":2348,"BSTAR":0.0047647,"MEAN_MOTION_DOT":0.0007674,"MEAN_MOTION_DDOT":0},{"OBJECT_NAME":"STARLINK-4686","OBJECT_ID":"2022-107R","EPOCH":"2023-02-02T03:36:59.486400","MEAN_MOTION":15.08832124,"ECCENTRICITY":0.0001389,"INCLINATION":53.218,"RA_OF_ASC_NODE":293.5072,"ARG_OF_PERICENTER":88.0255,"MEAN_ANOMALY":272.0896,"EPHEMERIS_TYPE":0,"CLASSIFICATION_TYPE":"U","NORAD_CAT_ID":53715,"ELEMENT_SET_NO":999,"REV_AT_EPOCH":2313,"BSTAR":-9.9216e-5,"MEAN_MOTION_DOT":-1.866e-5,"MEAN_MOTION_DDOT":0},{"OBJECT_NAME":"STARLINK-4699","OBJECT_ID":"2022-107S","EPOCH":"2023-02-02T03:31:41.354688","MEAN_MOTION":15.08838545,"ECCENTRICITY":0.0001317,"INCLINATION":53.2172,"RA_OF_ASC_NODE":293.488,"ARG_OF_PERICENTER":97.4382,"MEAN_ANOMALY":262.676,"EPHEMERIS_TYPE":0,"CLASSIFICATION_TYPE":"U","NORAD_CAT_ID":53716,"ELEMENT_SET_NO":999,"REV_AT_EPOCH":2313,"BSTAR":3.2093e-5,"MEAN_MOTION_DOT":2.23e-6,"MEAN_MOTION_DDOT":0},{"OBJECT_NAME":"STARLINK-4695","OBJECT_ID":"2022-107U","EPOCH":"2023-02-02T03:26:22.553376","MEAN_MOTION":15.08841839,"ECCENTRICITY":0.0001262,"INCLINATION":53.2191,"RA_OF_ASC_NODE":293.4618,"ARG_OF_PERICENTER":81.4975,"MEAN_ANOMALY":278.6161,"EPHEMERIS_TYPE":0,"CLASSIFICATION_TYPE":"U","NORAD_CAT_ID":53718,"ELEMENT_SET_NO":999,"REV_AT_EPOCH":2313,"BSTAR":4.8942e-5,"MEAN_MOTION_DOT":4.91e-6,"MEAN_MOTION_DDOT":0},{"OBJECT_NAME":"STARLINK-4644","OBJECT_ID":"2022-107V","EPOCH":"2023-02-01T22:39:46.280160","MEAN_MOTION":15.111338,"ECCENTRICITY":0.0001812,"INCLINATION":53.2126,"RA_OF_ASC_NODE":265.0941,"ARG_OF_PERICENTER":93.8362,"MEAN_ANOMALY":266.2838,"EPHEMERIS_TYPE":0,"CLASSIFICATION_TYPE":"U","NORAD_CAT_ID":53719,"ELEMENT_SET_NO":999,"REV_AT_EPOCH":2350,"BSTAR":0.0002436,"MEAN_MOTION_DOT":3.837e-5,"MEAN_MOTION_DDOT":0},{"OBJECT_NAME":"STARLINK-4642","OBJECT_ID":"2022-107W","EPOCH":"2023-02-02T02:06:55.417824","MEAN_MOTION":15.08833407,"ECCENTRICITY":0.0001409,"INCLINATION":53.2183,"RA_OF_ASC_NODE":293.8284,"ARG_OF_PERICENTER":89.2688,"MEAN_ANOMALY":270.8466,"EPHEMERIS_TYPE":0,"CLASSIFICATION_TYPE":"U","NORAD_CAT_ID":53720,"ELEMENT_SET_NO":999,"REV_AT_EPOCH":2312,"BSTAR":-8.1306e-5,"MEAN_MOTION_DOT":-1.581e-5,"MEAN_MOTION_DDOT":0},{"OBJECT_NAME":"STARLINK-4707","OBJECT_ID":"2022-107X","EPOCH":"2023-02-02T02:17:31.335648","MEAN_MOTION":15.08840929,"ECCENTRICITY":0.000107,"INCLINATION":53.2178,"RA_OF_ASC_NODE":293.8776,"ARG_OF_PERICENTER":86.4743,"MEAN_ANOMALY":273.6372,"EPHEMERIS_TYPE":0,"CLASSIFICATION_TYPE":"U","NORAD_CAT_ID":53721,"ELEMENT_SET_NO":999,"REV_AT_EPOCH":2312,"BSTAR":0.00011127,"MEAN_MOTION_DOT":1.484e-5,"MEAN_MOTION_DDOT":0},{"OBJECT_NAME":"STARLINK-4700","OBJECT_ID":"2022-107Y","EPOCH":"2023-02-02T02:08:17.293056","MEAN_MOTION":15.08839134,"ECCENTRICITY":0.0001093,"INCLINATION":53.2171,"RA_OF_ASC_NODE":293.838,"ARG_OF_PERICENTER":83.4474,"MEAN_ANOMALY":276.6642,"EPHEMERIS_TYPE":0,"CLASSIFICATION_TYPE":"U","NORAD_CAT_ID":53722,"ELEMENT_SET_NO":999,"REV_AT_EPOCH":2312,"BSTAR":-1.6125e-5,"MEAN_MOTION_DOT":-5.44e-6,"MEAN_MOTION_DDOT":0},{"OBJECT_NAME":"STARLINK-4705","OBJECT_ID":"2022-107Z","EPOCH":"2023-02-02T02:28:08.882976","MEAN_MOTION":15.08835424,"ECCENTRICITY":0.0001257,"INCLINATION":53.2198,"RA_OF_ASC_NODE":293.9139,"ARG_OF_PERICENTER":103.7424,"MEAN_ANOMALY":256.3708,"EPHEMERIS_TYPE":0,"CLASSIFICATION_TYPE":"U","NORAD_CAT_ID":53723,"ELEMENT_SET_NO":999,"REV_AT_EPOCH":2312,"BSTAR":-0.00011127,"MEAN_MOTION_DOT":-2.058e-5,"MEAN_MOTION_DDOT":0}]
